STARLINK-35975          
1 66525U 25265K   25329.66673611 -.01409400  57269-3 -38561-2 0  9998
2 66525  43.0012 156.8220 0001743 275.6231  86.3433 15.93203564  2255
STARLINK-35932          
1 66526U 25265L   25329.66673611 -.01417363  57906-3 -38628-2 0  9998
2 66526  43.0012 156.8173 0001853 273.4485  90.2977 15.93278408  2146
STARLINK-35935          
1 66527U 25265M   25329.66673611 -.01425994  58599-3 -38708-2 0  9996
2 66527  43.0012 156.8132 0001868 273.0791  92.4712 15.93355642  2253
STARLINK-35928          
1 66528U 25265N   25329.66673611 -.01430317  58967-3 -38678-2 0  9997
2 66528  43.0013 156.8084 0001826 275.2839  92.0364 15.93428458  2257
STARLINK-35933          
1 66529U 25265P   25329.66673611 -.01440209  59765-3 -38783-2 0  9993
2 66529  43.0013 156.8036 0001892 272.6293  96.5586 15.93508522  2259
STARLINK-35961          
1 66530U 25265Q   25329.66673611 -.01443717  60069-3 -38751-2 0  9996
2 66530  43.0013 156.8001 0001861 275.4222  95.2333 15.93570886  2250
STARLINK-35960          
1 66531U 25265R   25329.66673611 -.01446882  60349-3 -38704-2 0  9992
2 66531  43.0013 156.7960 0001885 270.9162 101.2589 15.93635428  2258
STARLINK-35914          
1 66532U 25265S   25329.66673611 -.01457765  61232-3 -38837-2 0  9994
2 66532  43.0013 156.7918 0001841 273.9664  99.9715 15.93713695  2251
STARLINK-35707          
1 66533U 25265T   25329.66673611 -.01464920  61832-3 -38866-2 0  9994
2 66533  43.0014 156.7872 0001949 272.1506 103.6641 15.93792310  2259
STARLINK-35976          
1 66534U 25265U   25329.66673611 -.01482742  63278-3 -39153-2 0  9993
2 66534  43.0016 156.7824 0001889 278.4809  99.2310 15.93884439  2254
STARLINK-35514          
1 66535U 25265V   25329.66673611 -.01477466  62900-3 -38896-2 0  9995
2 66535  43.0016 156.7785 0001789 275.2731 104.0102 15.93940766  2259
STARLINK-35640          
1 66536U 25265W   25329.66673611 -.01481347  63245-3 -38863-2 0  9996
2 66536  43.0016 156.7749 0001815 274.1739 106.5963 15.94006368  2238
STARLINK-35582          
1 66537U 25265X   25329.66673611 -.01491356  64083-3 -38961-2 0  9998
2 66537  43.0017 156.7700 0001877 273.0274 109.5745 15.94086933  2256
STARLINK-35577          
1 66538U 25265Y   25329.66673611 -.01499980  64818-3 -39018-2 0  9990
2 66538  43.0016 156.7651 0001896 272.7742 111.7203 15.94168927  2256
STARLINK-35697          
1 66539U 25265Z   25329.66673611 -.01508997  65588-3 -39087-2 0  9991
2 66539  43.0015 156.7600 0001822 272.8614 113.4892 15.94249528  2258
STARLINK-35818          
1 66540U 25265AA  25329.66673611 -.01517098  66283-3 -39153-2 0  9992
2 66540  43.0015 156.7566 0001862 274.3744 113.5514 15.94319391  2254
STARLINK-35796          
1 66541U 25265AB  25329.66673611 -.01524546  66925-3 -39211-2 0  9997
2 66541  43.0016 156.7527 0001863 271.9071 117.4728 15.94384318  2251
STARLINK-35833          
1 66542U 25265AC  25329.66673611 -.01540787  68297-3 -39465-2 0  9998
2 66542  43.0016 156.7487 0001738 274.0355 117.0647 15.94464628  2256
STARLINK-35315          
1 66543U 25265AD  25329.66673611 -.01554267  69448-3 -39664-2 0  9997
2 66543  43.0016 156.7442 0001837 273.5115 119.1528 15.94535118  2148
STARLINK-35728          
1 66544U 25265AE  25329.66673611 -.01567702  70606-3 -39863-2 0  9995
2 66544  43.0014 156.7410 0001795 271.3258 122.7611 15.94604380  2252
SHIJIAN-30A             
1 66545U 25266A   25330.86347088  .00011727  00000+0  62915-3 0  9997
2 66545  51.7983  47.2197 0012845 299.3816  60.5877 15.15296959  1173
SHIJIAN-30B             
1 66546U 25266B   25330.73275105  .00010706  00000+0  57802-3 0  9999
2 66546  51.7965  47.8441 0010302 300.0724  59.9230 15.15186153  1153
SHIJIAN-30C             
1 66547U 25266C   25330.86563618  .00009423  00000+0  50973-3 0  9999
2 66547  51.7977  47.2330 0011243 293.0335  66.9455 15.15253055  1177
CZ-2C R/B               
1 66548U 25266D   25330.53247299  .00013361  00000+0  42198-3 0  9994
2 66548  52.0557  48.4640 0085233 117.7280 243.2383 15.29662208  1139
GLOBAL-33               
1 66554U 25267A   25330.22783082  .00011976  00000+0  39783-3 0  9999
2 66554  42.0192 152.2803 0006358 301.1376  58.8837 15.31078096   874
ELECTRON KICK STAGE R/B 
1 66555U 25267B   25330.22562177  .00022630  00000+0  72789-3 0  9992
2 66555  42.0176 152.2664 0008006 299.5325  60.4714 15.31743306   874
ELECTRON R/B            
1 66556U 25267C   25325.68896391  .00330020  73273-5  18540-3 0  9993
2 66556  42.0620 178.0185 0218594 275.5638  82.0326 15.83492186   186
TJS-21                  
1 66586U 25269A   25326.02704417  .00003197  00000+0  53570-3 0  9990
2 66586  51.0366 174.7096 7517987 225.0489  41.6572  2.00992210    24
CZ-3B R/B               
1 66587U 25269B   25327.51390516  .00010320 -91384-6  49597-3 0  9990
2 66587  51.3768 174.0599 7525341 225.2938  41.2116  2.01516013    67
SHENZHOU-22             
1 66645U 25272A   25330.11960063  .00021667  00000+0  28092-3 0  9999
2 66645  41.4669 117.5336 0010804 271.9924  87.9677 15.58278261262012
CZ-2F R/B               
1 66646U 25272B   25330.47076975  .00449059  75676-5  29319-3 0  9998
2 66646  41.4431 114.9009 0121080 133.7676 227.3272 16.01945612   219
COSMOS 2597 (RODNIK-S *)
1 66647U 25273A   25330.84551164  .00000074  00000+0  47194-3 0  9993
2 66647  82.4976 296.3206 0008330 326.2670  33.7878 12.41951213   167
COSMOS 2598 (RODNIK-S *)
1 66648U 25273B   25330.20091316  .00000023  00000+0  93658-4 0  9993
2 66648  82.5016 296.7269 0008406 316.5340  43.5076 12.42253700    84
COSMOS 2599 (RODNIK-S *)
1 66649U 25273C   25330.84578347  .00000027  00000+0  12328-3 0  9996
2 66649  82.5016 296.3271 0008576 336.1882  23.8799 12.41672194   164
